{
  "type": "FeatureCollection",
  "features": [
    {
      "type": "Feature",
      "properties": {
        "norad_id": 36716,
        "name": "FENGYUN 1C DEB",
        "group": "fengyun-1c-debris",
        "lat": -51.94518305647178,
        "lon": -92.28383883951528,
        "alt_km": 871.6716424843553,
        "timestamp": "2025-12-02T13:52:17.550661+00:00",
        "meta_object_name": "FENGYUN 1C DEB",
        "meta_object_id": "1999-025EAN",
        "meta_epoch": "2025-12-01T12:10:52.167072",
        "meta_mean_motion": 13.88402235,
        "meta_eccentricity": 0.01480738,
        "meta_inclination": 99.2271,
        "meta_ra_of_asc_node": 254.6729,
        "meta_arg_of_pericenter": 259.27,
        "meta_mean_anomaly": 99.1757,
        "meta_ephemeris_type": 0,
        "meta_classification_type": "U",
        "meta_norad_cat_id": 36716,
        "meta_element_set_no": 999,
        "meta_rev_at_epoch": 62775,
        "meta_bstar": 0.00027607532,
        "meta_mean_motion_dot": 3.16e-06,
        "meta_mean_motion_ddot": 0,
        "tle_line1": "1 36716U 99025EAN 25335.50754823  .00000316  00000+0  27608-3 0  9995",
        "tle_line2": "2 36716  99.2271 254.6729 0148073 259.2700  99.1757 13.88402235627759"
      },
      "geometry": {
        "type": "Point",
        "coordinates": [
          -92.28383883951528,
          -51.94518305647178
        ]
      }
    },
    {
      "type": "Feature",
      "properties": {
        "norad_id": 36724,
        "name": "FENGYUN 1C DEB",
        "group": "fengyun-1c-debris",
        "lat": -80.505983421744,
        "lon": 101.00083340725303,
        "alt_km": 760.6974372457826,
        "timestamp": "2025-12-02T13:52:17.550671+00:00",
        "meta_object_name": "FENGYUN 1C DEB",
        "meta_object_id": "1999-025EAW",
        "meta_epoch": "2025-12-02T00:57:35.994816",
        "meta_mean_motion": 14.25124364,
        "meta_eccentricity": 0.01035854,
        "meta_inclination": 99.4708,
        "meta_ra_of_asc_node": 6.9331,
        "meta_arg_of_pericenter": 227.7842,
        "meta_mean_anomaly": 162.27,
        "meta_ephemeris_type": 0,
        "meta_classification_type": "U",
        "meta_norad_cat_id": 36724,
        "meta_element_set_no": 999,
        "meta_rev_at_epoch": 57320,
        "meta_bstar": 0.0021080641,
        "meta_mean_motion_dot": 5.184e-05,
        "meta_mean_motion_ddot": 0,
        "tle_line1": "1 36724U 99025EAW 25336.03999994  .00005184  00000+0  21081-2 0  9999",
        "tle_line2": "2 36724  99.4708   6.9331 0103585 227.7842 162.2700 14.25124364573204"
      },
      "geometry": {
        "type": "Point",
        "coordinates": [
          101.00083340725303,
          -80.505983421744
        ]
      }
    },
    {
      "type": "Feature",
      "properties": {
        "norad_id": 36729,
        "name": "FENGYUN 1C DEB",
        "group": "fengyun-1c-debris",
        "lat": 31.74105650972895,
        "lon": 144.1433724931228,
        "alt_km": 880.853371790643,
        "timestamp": "2025-12-02T13:52:17.550681+00:00",
        "meta_object_name": "FENGYUN 1C DEB",
        "meta_object_id": "1999-025EBB",
        "meta_epoch": "2025-12-01T04:49:03.522144",
        "meta_mean_motion": 14.10297876,
        "meta_eccentricity": 0.0045518,
        "meta_inclination": 98.7068,
        "meta_ra_of_asc_node": 317.3705,
        "meta_arg_of_pericenter": 289.5642,
        "meta_mean_anomaly": 70.0617,
        "meta_ephemeris_type": 0,
        "meta_classification_type": "U",
        "meta_norad_cat_id": 36729,
        "meta_element_set_no": 999,
        "meta_rev_at_epoch": 87089,
        "meta_bstar": 0.0003119,
        "meta_mean_motion_dot": 5.16e-06,
        "meta_mean_motion_ddot": 0,
        "tle_line1": "1 36729U 99025EBB 25335.20073521  .00000516  00000+0  31190-3 0  9998",
        "tle_line2": "2 36729  98.7068 317.3705 0045518 289.5642  70.0617 14.10297876870890"
      },
      "geometry": {
        "type": "Point",
        "coordinates": [
          144.1433724931228,
          31.74105650972895
        ]
      }
    },
    {
      "type": "Feature",
      "properties": {
        "norad_id": 36734,
        "name": "FENGYUN 1C DEB",
        "group": "fengyun-1c-debris",
        "lat": 60.747507880066465,
        "lon": 6.594904351361267,
        "alt_km": 825.4532676134941,
        "timestamp": "2025-12-02T13:52:17.550691+00:00",
        "meta_object_name": "FENGYUN 1C DEB",
        "meta_object_id": "1999-025EBG",
        "meta_epoch": "2025-12-02T01:47:23.275680",
        "meta_mean_motion": 14.25724039,
        "meta_eccentricity": 0.00354571,
        "meta_inclination": 99.0569,
        "meta_ra_of_asc_node": 22.6212,
        "meta_arg_of_pericenter": 249.1772,
        "meta_mean_anomaly": 110.5608,
        "meta_ephemeris_type": 0,
        "meta_classification_type": "U",
        "meta_norad_cat_id": 36734,
        "meta_element_set_no": 999,
        "meta_rev_at_epoch": 82582,
        "meta_bstar": 0.0018421296,
        "meta_mean_motion_dot": 4.356e-05,
        "meta_mean_motion_ddot": 0,
        "tle_line1": "1 36734U 99025EBG 25336.07457495  .00004356  00000+0  18421-2 0  9993",
        "tle_line2": "2 36734  99.0569  22.6212 0035457 249.1772 110.5608 14.25724039825827"
      },
      "geometry": {
        "type": "Point",
        "coordinates": [
          6.594904351361267,
          60.747507880066465
        ]
      }
    },
    {
      "type": "Feature",
      "properties": {
        "norad_id": 36736,
        "name": "FENGYUN 1C DEB",
        "group": "fengyun-1c-debris",
        "lat": 4.20646157576509,
        "lon": -129.34848946763648,
        "alt_km": 765.8621423961094,
        "timestamp": "2025-12-02T13:52:17.550701+00:00",
        "meta_object_name": "FENGYUN 1C DEB",
        "meta_object_id": "1999-025EBJ",
        "meta_epoch": "2025-11-30T10:30:26.479872",
        "meta_mean_motion": 14.25310583,
        "meta_eccentricity": 0.00614987,
        "meta_inclination": 98.8074,
        "meta_ra_of_asc_node": 47.8499,
        "meta_arg_of_pericenter": 174.9248,
        "meta_mean_anomaly": 185.2568,
        "meta_ephemeris_type": 0,
        "meta_classification_type": "U",
        "meta_norad_cat_id": 36736,
        "meta_element_set_no": 999,
        "meta_rev_at_epoch": 88440,
        "meta_bstar": 0.001858623,
        "meta_mean_motion_dot": 4.421e-05,
        "meta_mean_motion_ddot": 0,
        "tle_line1": "1 36736U 99025EBJ 25334.43780648  .00004421  00000+0  18586-2 0  9997",
        "tle_line2": "2 36736  98.8074  47.8499 0061498 174.9248 185.2568 14.25310583884408"
      },
      "geometry": {
        "type": "Point",
        "coordinates": [
          -129.34848946763648,
          4.20646157576509
        ]
      }
    },
    {
      "type": "Feature",
      "properties": {
        "norad_id": 36743,
        "name": "FENGYUN 1C DEB",
        "group": "fengyun-1c-debris",
        "lat": 71.11731986420669,
        "lon": -1.5317777936852521,
        "alt_km": 758.1767258241107,
        "timestamp": "2025-12-02T13:52:17.550711+00:00",
        "meta_object_name": "FENGYUN 1C DEB",
        "meta_object_id": "1999-025EBR",
        "meta_epoch": "2025-11-27T20:56:29.744736",
        "meta_mean_motion": 14.2895777,
        "meta_eccentricity": 0.0048245,
        "meta_inclination": 98.6571,
        "meta_ra_of_asc_node": 20.248,
        "meta_arg_of_pericenter": 57.0274,
        "meta_mean_anomaly": 303.5532,
        "meta_ephemeris_type": 0,
        "meta_classification_type": "U",
        "meta_norad_cat_id": 36743,
        "meta_element_set_no": 999,
        "meta_rev_at_epoch": 60525,
        "meta_bstar": 0.00142,
        "meta_mean_motion_dot": 3.592e-05,
        "meta_mean_motion_ddot": 0,
        "tle_line1": "1 36743U 99025EBR 25331.87256649  .00003592  00000+0  14200-2 0  9996",
        "tle_line2": "2 36743  98.6571  20.2480 0048245  57.0274 303.5532 14.28957770605254"
      },
      "geometry": {
        "type": "Point",
        "coordinates": [
          -1.5317777936852521,
          71.11731986420669
        ]
      }
    },
    {
      "type": "Feature",
      "properties": {
        "norad_id": 36986,
        "name": "FENGYUN 1C DEB",
        "group": "fengyun-1c-debris",
        "lat": -19.710274006182186,
        "lon": -140.97727329383994,
        "alt_km": 828.2813425407203,
        "timestamp": "2025-12-02T13:52:17.550722+00:00",
        "meta_object_name": "FENGYUN 1C DEB",
        "meta_object_id": "1999-025EBS",
        "meta_epoch": "2025-11-23T16:41:57.060384",
        "meta_mean_motion": 14.14366632,
        "meta_eccentricity": 0.00851125,
        "meta_inclination": 99.1414,
        "meta_ra_of_asc_node": 33.2424,
        "meta_arg_of_pericenter": 295.2999,
        "meta_mean_anomaly": 63.9373,
        "meta_ephemeris_type": 0,
        "meta_classification_type": "U",
        "meta_norad_cat_id": 36986,
        "meta_element_set_no": 999,
        "meta_rev_at_epoch": 81475,
        "meta_bstar": 0.0017459823,
        "meta_mean_motion_dot": 3.412e-05,
        "meta_mean_motion_ddot": 0,
        "tle_line1": "1 36986U 99025EBS 25327.69579931  .00003412  00000+0  17460-2 0  9994",
        "tle_line2": "2 36986  99.1414  33.2424 0085112 295.2999  63.9373 14.14366632814754"
      },
      "geometry": {
        "type": "Point",
        "coordinates": [
          -140.97727329383994,
          -19.710274006182186
        ]
      }
    }
  ]
}